NORAD_CAT_ID,OBJECT_NAME,OBJECT_TYPE,EPOCH,MEAN_MOTION,ECCENTRICITY,INCLINATION,RA_OF_ASC_NODE,ARG_OF_PERICENTER,MEAN_ANOMALY,BSTAR,MEAN_MOTION_DOT,MEAN_MOTION_DDOT,TLE_LINE0,TLE_LINE1,TLE_LINE2,SEMIMAJOR_AXIS,PERIOD,APOGEE,PERIGEE,DECAYED
53712.0,STARLINK-4683,PAYLOAD,2022-09-22 22:00:00,15.73185125,0.000158,53.2142,184.9156,130.3353,117.2813,0.00012107,0.00016394,0.0,0 STARLINK-4683,1 53712U 22107N   22265.91667824  .00016394  00000-0  12107-3 0  9997,2 53712  53.2142 184.9156 0001580 130.3353 117.2813 15.73185125  1308,6727.938,91.534,350.866,348.74,0.0
53712.0,STARLINK-4683,PAYLOAD,2022-09-23 14:00:01,15.73173537,0.0001708,53.2147,181.6158,129.7772,295.7101,0.00038113,0.00053148,0.0,0 STARLINK-4683,1 53712U 22107N   22266.58334491  .00053148  00000-0  38113-3 0  9995,2 53712  53.2147 181.6158 0001708 129.7772 295.7101 15.73173537  1304,6727.971,91.535,350.985,348.686,0.0
53712.0,STARLINK-4683,PAYLOAD,2022-09-23 20:00:01,15.732143300000002,0.0001810999999999,53.2149,180.3788,127.1758,275.0556,0.00028205,0.00039174,0.0,0 STARLINK-4683,1 53712U 22107N   22266.83335648  .00039174  00000-0  28205-3 0  9992,2 53712  53.2149 180.3788 0001811 127.1758 275.0556 15.73214330  3070,6727.854,91.532,350.93800000000016,348.501,0.0
53712.0,STARLINK-4683,PAYLOAD,2022-09-24 14:00:01,15.73225279,0.0001517,53.2142,176.6669,143.1333,189.3186,8.8841e-05,0.00011879,0.0,0 STARLINK-4683,1 53712U 22107N   22267.58335648  .00011879  00000-0  88841-4 0  9990,2 53712  53.2142 176.6669 0001517 143.1333 189.3186 15.73225279  3181,6727.823,91.532,350.709,348.667,0.0
53712.0,STARLINK-4683,PAYLOAD,2022-09-24 22:00:00,15.73261533,0.0001484,53.2145,175.0185,139.8344,281.5103,-0.0005719,-0.00080332,0.0,0 STARLINK-4683,1 53712U 22107N   22267.91667824 -.00080332  00000-0 -57190-3 0  9995,2 53712  53.2145 175.0185 0001484 139.8344 281.5103 15.73261533  1306,6727.72,91.53,350.583,348.586,0.0
53712.0,STARLINK-4683,PAYLOAD,2022-09-25 06:00:00,15.73203112,0.0001431999999999,53.2144,173.3699,131.78,18.5246,-5.875300000000001e-05,-8.858e-05,0.0,0 STARLINK-4683,1 53712U 22107N   22268.25001157 -.00008858  00000-0 -58753-4 0  9994,2 53712  53.2144 173.3699 0001432 131.7800  18.5246 15.73203112  3292,6727.886,91.533,350.715,348.788,0.0
53712.0,STARLINK-4683,PAYLOAD,2022-09-25 14:00:01,15.73178467,0.0001605,53.2148,171.7182,139.6642,99.5761,6.613100000000001e-05,8.662e-05,0.0,0 STARLINK-4683,1 53712U 22107N   22268.58334491  .00008662  00000-0  66131-4 0  9990,2 53712  53.2148 171.7182 0001605 139.6642  99.5761 15.73178467  1303,6727.956999999999,91.534,350.901,348.742,0.0
53712.0,STARLINK-4683,PAYLOAD,2022-09-25 22:00:01,15.73216496,0.0001518,53.215,170.0699,135.6703,192.519,-0.00041513,-0.00058519,0.0,0 STARLINK-4683,1 53712U 22107N   22268.91668981 -.00058519  00000-0 -41513-3 0  9995,2 53712  53.2150 170.0699 0001518 135.6703 192.5190 15.73216496  1303,6727.848000000001,91.532,350.7340000000001,348.69199999999995,0.0
53712.0,STARLINK-4683,PAYLOAD,2022-09-26 10:00:00,15.73230891,0.0001517,53.2141,167.5954,136.4447,145.064,-0.00049851,-0.00070096,0.0,0 STARLINK-4683,1 53712U 22107N   22269.41667824 -.00070096  00000-0 -49851-3 0  9993,2 53712  53.2141 167.5954 0001517 136.4447 145.0640 15.73230891  3479,6727.807,91.531,350.6930000000001,348.651,0.0
53712.0,STARLINK-4683,PAYLOAD,2022-09-26 14:00:01,15.73163363,0.0001610999999999,53.2139,166.7698,142.3997,3.6051,0.00074758,0.00105459,0.0,0 STARLINK-4683,1 53712U 22107N   22269.58334491  .00105459  00000-0  74758-3 0  9996,2 53712  53.2139 166.7698 0001611 142.3997   3.6051 15.73163363  1307,6728.0,91.535,350.949,348.781,0.0
53712.0,STARLINK-4683,PAYLOAD,2022-09-26 22:00:00,15.73243457,0.0001491,53.2141,165.1218,141.1602,93.7588,-0.00052211,-0.00073396,0.0,0 STARLINK-4683,1 53712U 22107N   22269.91667824 -.00073396  00000-0 -52211-3 0  9998,2 53712  53.2141 165.1218 0001491 141.1602  93.7588 15.73243457  3554,6727.771,91.531,350.639,348.6330000000001,0.0
53712.0,STARLINK-4683,PAYLOAD,2022-09-27 06:00:00,15.73232182,0.000126,53.214,163.4727,142.8571,181.0017,-0.00036626,-0.00051777,0.0,0 STARLINK-4683,1 53712U 22107N   22270.25001157 -.00051777  00000-0 -36626-3 0  9999,2 53712  53.2140 163.4727 0001260 142.8571 181.0017 15.73232182  3603,6727.803000000001,91.531,350.516,348.821,0.0
53712.0,STARLINK-4683,PAYLOAD,2022-09-27 14:00:01,15.73182016,0.000151,53.2142,161.821,147.6751,265.1353,4.736899999999999e-05,6.028e-05,0.0,0 STARLINK-4683,1 53712U 22107N   22270.58334491  .00006028  00000-0  47369-4 0  9999,2 53712  53.2142 161.8210 0001510 147.6751 265.1353 15.73182016  1307,6727.946,91.534,350.827,348.796,0.0
53712.0,STARLINK-4683,PAYLOAD,2022-09-27 22:00:01,15.73195457,0.0001314,53.214,160.1728,147.4979,354.3137,0.00031928,0.00044417,0.0,0 STARLINK-4683,1 53712U 22107N   22270.91668981  .00044417  00000-0  31928-3 0  9997,2 53712  53.2140 160.1728 0001314 147.4979 354.3137 15.73195457  3714,6727.908,91.533,350.657,348.889,0.0
53712.0,STARLINK-4683,PAYLOAD,2022-09-28 14:00:01,15.73229147,0.0001625,53.2133,156.872,143.6155,176.062,-0.0003688,-0.00052126,0.0,0 STARLINK-4683,1 53712U 22107N   22271.58334491 -.00052126  00000-0 -36880-3 0  9997,2 53712  53.2133 156.8720 0001625 143.6155 176.0620 15.73229147  3810,6727.812,91.531,350.77,348.584,0.0
53712.0,STARLINK-4683,PAYLOAD,2022-09-28 22:00:00,15.73204591,0.0001617,53.2137,155.2242,136.8198,271.8005,-0.00090272,-0.00125469,0.0,0 STARLINK-4683,1 53712U 22107N   22271.91667824 -.00125469  00000-0 -90272-3 0  9999,2 53712  53.2137 155.2242 0001617 136.8198 271.8005 15.73204591  1307,6727.882,91.533,350.835,348.659,0.0
53712.0,STARLINK-4683,PAYLOAD,2022-09-29 14:00:01,15.73095607,0.000159,53.2136,151.9235,146.0108,80.2465,0.0007304,0.00102688,0.0,0 STARLINK-4683,1 53712U 22107N   22272.58334491  .00102688  00000-0  73040-3 0  9994,2 53712  53.2136 151.9235 0001590 146.0108  80.2465 15.73095607  3978,6728.193,91.539,351.12800000000016,348.98800000000006,0.0
53712.0,STARLINK-4683,PAYLOAD,2022-09-29 22:00:00,15.73170875,0.0001443999999999,53.2135,150.2758,141.1407,173.9666,0.00029884,0.00041475,0.0,0 STARLINK-4683,1 53712U 22107N   22272.91667824  .00041475  00000-0  29884-3 0  9993,2 53712  53.2135 150.2758 0001444 141.1407 173.9666 15.73170875  1304,6727.978,91.535,350.815,348.872,0.0
53712.0,STARLINK-4683,PAYLOAD,2022-09-30 06:00:02,15.7321915,0.0001347,53.213,148.626,143.1188,260.9576,0.00033133,0.00046174,0.0,0 STARLINK-4683,1 53712U 22107N   22273.25002315  .00046174  00000-0  33133-3 0  9992,2 53712  53.2130 148.6260 0001347 143.1188 260.9576 15.73219150  4083,6727.840999999999,91.532,350.612,348.7990000000001,0.0
53712.0,STARLINK-4683,PAYLOAD,2022-09-30 14:00:01,15.73274343,0.0001638,53.2132,146.9748,147.0873,345.8905,-0.00010164,-0.00014906,0.0,0 STARLINK-4683,1 53712U 22107N   22273.58334491 -.00014906  00000-0 -10164-3 0  9990,2 53712  53.2132 146.9748 0001638 147.0873 345.8905 15.73274343  1300,6727.683000000001,91.529,350.65,348.446,0.0
53712.0,STARLINK-4683,PAYLOAD,2022-09-30 22:00:00,15.73253416,0.0001545,53.2133,145.327,138.877,83.1203,0.00018155,0.00024993,0.0,0 STARLINK-4683,1 53712U 22107N   22273.91667824  .00024993  00000-0  18155-3 0  9999,2 53712  53.2133 145.3270 0001545 138.8770  83.1203 15.73253416  1306,6727.743,91.53,350.647,348.5680000000001,0.0
53712.0,STARLINK-4683,PAYLOAD,2022-10-01 06:00:00,15.73295527,0.0001491,53.2134,143.6768,140.5937,170.4012,-0.00054481,-0.00076701,0.0,0 STARLINK-4683,1 53712U 22107N   22274.25001157 -.00076701  00000-0 -54481-3 0  9996,2 53712  53.2134 143.6768 0001491 140.5937 170.4012 15.73295527  4237,6727.623000000001,91.528,350.491,348.485,0.0
53712.0,STARLINK-4683,PAYLOAD,2022-10-01 14:00:01,15.73211677,0.0001644,53.2138,142.0254,145.0205,254.987,0.00020228,0.00027877,0.0,0 STARLINK-4683,1 53712U 22107N   22274.58334491  .00027877  00000-0  20228-3 0  9992,2 53712  53.2138 142.0254 0001644 145.0205 254.9870 15.73211677  1301,6727.861999999999,91.533,350.833,348.621,0.0
53712.0,STARLINK-4683,PAYLOAD,2022-10-01 22:00:00,15.73223822,0.0001445,53.2138,140.3777,140.1986,348.7667,-0.00066132,-0.00092514,0.0,0 STARLINK-4683,1 53712U 22107N   22274.91667824 -.00092514  00000-0 -66132-3 0  9994,2 53712  53.2138 140.3777 0001445 140.1986 348.7667 15.73223822  1304,6727.8269999999975,91.532,350.664,348.72,0.0
53712.0,STARLINK-4683,PAYLOAD,2022-10-02 06:00:00,15.7319905,0.0001414,53.2135,138.7277,143.0666,74.8125,-0.00060136,-0.00084175,0.0,0 STARLINK-4683,1 53712U 22107N   22275.25001157 -.00084175  00000-0 -60136-3 0  9995,2 53712  53.2135 138.7277 0001414 143.0666  74.8125 15.73199050  4393,6727.898,91.533,350.714,348.81199999999984,0.0
53712.0,STARLINK-4683,PAYLOAD,2022-10-02 14:00:01,15.73130281,0.000166,53.2137,137.0769,145.9969,160.7748,0.00078551,0.00110755,0.0,0 STARLINK-4683,1 53712U 22107N   22275.58334491  .00110755  00000-0  78551-3 0  9993,2 53712  53.2137 137.0769 0001660 145.9969 160.7748 15.73130281  1308,6728.094,91.537,351.076,348.842,0.0
53712.0,STARLINK-4683,PAYLOAD,2022-10-02 22:00:00,15.73191312,0.0001463,53.2138,135.4296,142.1801,253.4663,0.00043872,0.0006138,0.0,0 STARLINK-4683,1 53712U 22107N   22275.91667824  .00061380  00000-0  43872-3 0  9996,2 53712  53.2138 135.4296 0001463 142.1801 253.4663 15.73191312  1309,6727.92,91.534,350.769,348.801,0.0
53712.0,STARLINK-4683,PAYLOAD,2022-10-03 14:00:01,15.7323824,0.0001717,53.2144,132.1282,140.1867,73.4134,0.00019741,0.0002722,0.0,0 STARLINK-4683,1 53712U 22107N   22276.58334491  .00027220  00000-0  19741-3 0  9994,2 53712  53.2144 132.1282 0001717 140.1867  73.4134 15.73238240  1302,6727.786,91.531,350.806,348.496,0.0
53712.0,STARLINK-4683,PAYLOAD,2022-10-03 22:00:00,15.73251948,0.0001536,53.2144,130.4806,134.3053,168.2796,-0.00019096,-0.00027394,0.0,0 STARLINK-4683,1 53712U 22107N   22276.91667824 -.00027394  00000-0 -19096-3 0  9997,2 53712  53.2144 130.4806 0001536 134.3053 168.2796 15.73251948  1303,6727.746999999999,91.53,350.645,348.579,0.0
